[{"OBJECT_NAME":"YAOGAN-43 01G","OBJECT_ID":"2024-148G","EPOCH":"2026-03-09T10:38:37.087584","MEAN_MOTION":15.28332833,"ECCENTRICITY":0.00073829,"INCLINATION":35.0006,"RA_OF_ASC_NODE":62.0013,"ARG_OF_PERICENTER":306.3543,"MEAN_ANOMALY":53.6492,"EPHEMERIS_TYPE":0,"CLASSIFICATION_TYPE":"U","NORAD_CAT_ID":60464,"ELEMENT_SET_NO":999,"REV_AT_EPOCH":8700,"BSTAR":0.00035872736,"MEAN_MOTION_DOT":0.00010133,"MEAN_MOTION_DDOT":0},{"OBJECT_NAME":"STARLINK-36107","OBJECT_ID":"2025-288W","EPOCH":"2026-03-09T07:16:08.806944","MEAN_MOTION":15.27591966,"ECCENTRICITY":0.00013323,"INCLINATION":43.0022,"RA_OF_ASC_NODE":26.0239,"ARG_OF_PERICENTER":256.7609,"MEAN_ANOMALY":103.3094,"EPHEMERIS_TYPE":0,"CLASSIFICATION_TYPE":"U","NORAD_CAT_ID":66979,"ELEMENT_SET_NO":999,"REV_AT_EPOCH":1522,"BSTAR":0.00087468455,"MEAN_MOTION_DOT":0.00023894,"MEAN_MOTION_DDOT":0}]
